EYESAT A (AO-27)        
1 22825U 93061C   26201.91282639  .00000039  00000+0  31734-4 0  9992
2 22825  98.6863 269.3111 0008423   9.6352 350.4991 14.30950079711824
ITAMSAT (IO-26)         
1 22826U 93061D   26201.74236589  .00000021  00000+0  24924-4 0  9991
2 22826  98.6811 269.0617 0008619 352.8903   7.2156 14.31377685712118
RADIO ROSTO (RS15)      
1 23439U 94085A   26201.81783308 -.00000047  00000+0 -13223-3 0  9992
2 23439  64.8143 248.8272 0157137 357.6705   2.3471 11.27583651299690
JAS-2 (FO-29)           
1 24278U 96046B   26201.43295381 -.00000049  00000+0 -13729-4 0  9994
2 24278  98.5217  45.7476 0350108  10.3648 350.4474 13.53275815477666
FORTE                   
1 24920U 97047A   26201.71834279  .00000064  00000+0  49219-4 0  9994
2 24920  69.9543 298.2821 0024214 236.6475 123.2329 14.27956799503473
TECHSAT 1B (GO-32)      
1 25397U 98043D   26201.92144205  .00000025  00000+0  31066-4 0  9994
2 25397  99.0090 195.5342 0002306 105.8843 254.2589 14.24434052456137
ISS (ZARYA)             
1 25544U 98067A   26201.79846070  .00005574  00000+0  10900-3 0  9995
2 25544  51.6312 133.7599 0006835 319.3995  40.6483 15.49066413576965
IMAGE                   
1 26113U 00017A   26201.47761102 -.00000064  00000+0  00000+0 0  9999
2 26113  94.2547 315.8054 7409307 284.0475  10.0856  1.68666956162060
CLUSTER II-FM7 (SAMBA)  
1 26410U 00041A   26201.60182196  .00010308 -30415-5  00000+0 0  9992
2 26410 149.8020  56.9135 9091714 274.4939 359.4480  0.44850593 20460
CLUSTER II-FM8 (TANGO)  
1 26464U 00045B   26199.95355120  .00014903 -89736-5  00000+0 0  9993
2 26464 150.0065  57.8200 9095390 275.2268   2.0610  0.44421506 20456
ODIN                    
1 26702U 01007A   26201.84046346  .00402916  64924-4  11628-2 0  9992
2 26702  97.3677 245.3160 0005008 158.6660 201.4824 15.93013897394726
OMNI-M1                 
1 26857U 01026A   26196.51065422  .00000004  00000+0  00000+0 0  9998
2 26857  44.8240 238.7352 0013528  57.8922 302.2996  3.92402085206680
PCSAT (NO-44)           
1 26931U 01043C   26201.33574834  .00000044  00000+0  47440-4 0  9997
2 26931  67.0500 158.5337 0005868 267.0045  93.0386 14.31966213295195
PROBA-1                 
1 26958U 01049B   26201.98701965  .00000647  00000+0  45688-4 0  9991
2 26958  97.9604 211.7029 0055023  10.2710 349.9627 15.07624609348718
SAUDISAT 1C (SO-50)     
1 27607U 02058C   26201.93815510  .00000570  00000+0  84993-4 0  9998
2 27607  64.5521  24.5545 0074346 256.2283 103.0541 14.83105633269469
CORIOLIS                
1 27640U 03001A   26201.94984424  .00000054  00000+0  45839-4 0  9999
2 27640  98.7137 208.3204 0015115 113.8917 246.3845 14.19952952219010
CUTE-1 (CO-55)          
1 27844U 03031E   26201.82623460  .00000172  00000+0  93434-4 0  9990
2 27844  98.6745 209.9631 0010867  88.2698 271.9726 14.24353809196468
CUBESAT XI-IV (CO-57)   
1 27848U 03031J   26201.48019381  .00000116  00000+0  70115-4 0  9996
2 27848  98.6776 209.3071 0010684 105.6000 254.6359 14.23636281196115
MOZHAETS 4 (RS22)       
1 27939U 03042A   26201.98015619  .00000829  00000+0  13574-3 0  9990
2 27939  98.3483  27.2959 0011679 155.2099   4.3294 14.73520922220524
